NORAD_CAT_ID,OBJECT_NAME,OBJECT_TYPE,EPOCH,MEAN_MOTION,ECCENTRICITY,INCLINATION,RA_OF_ASC_NODE,ARG_OF_PERICENTER,MEAN_ANOMALY,BSTAR,MEAN_MOTION_DOT,MEAN_MOTION_DDOT,TLE_LINE0,TLE_LINE1,TLE_LINE2,SEMIMAJOR_AXIS,PERIOD,APOGEE,PERIGEE,DECAYED
51861.0,STARLINK-3562,PAYLOAD,2022-11-20 11:24:56,15.0883437,0.000211,53.2185,19.5328,42.6086,317.5069,6.7759e-05,7.9e-06,0.0,0 STARLINK-3562,1 51861U 22022K   22324.47565632  .00000790  00000-0  67759-4 0  9994,2 51861  53.2185  19.5328 0002110  42.6086 317.5069 15.08834370 41088,6917.898,95.438,541.222,538.303,0.0
51861.0,STARLINK-3562,PAYLOAD,2022-11-20 20:57:15,15.08831848,0.0002261,53.2181,17.7478,36.8392,323.2756,8.931899999999999e-05,1.133e-05,0.0,0 STARLINK-3562,1 51861U 22022K   22324.87309776  .00001133  00000-0  89319-4 0  9991,2 51861  53.2181  17.7478 0002261  36.8392 323.2756 15.08831848 41211,6917.905,95.438,541.3340000000002,538.206,0.0
51861.0,STARLINK-3562,PAYLOAD,2022-11-21 12:51:06,15.08846886,0.0002447,53.2185,14.774,39.0047,321.1122,-0.00016581,-2.927e-05,0.0,0 STARLINK-3562,1 51861U 22022K   22325.53549665 -.00002927  00000-0 -16581-3 0  9992,2 51861  53.2185  14.7740 0002447  39.0047 321.1122 15.08846886 41247,6917.859,95.437,541.4169999999998,538.0319999999998,0.0
51861.0,STARLINK-3562,PAYLOAD,2022-11-22 03:09:34,15.08859471,0.0002311,53.2194,12.0959,36.5578,323.5571,-0.00016188,-2.865e-05,0.0,0 STARLINK-3562,1 51861U 22022K   22326.13165067 -.00002865  00000-0 -16188-3 0  9993,2 51861  53.2194  12.0959 0002311  36.5578 323.5571 15.08859471 41407,6917.821,95.436,541.285,538.087,0.0
51861.0,STARLINK-3562,PAYLOAD,2022-11-22 09:31:06,15.08864781,0.0002387,53.2187,10.9061,35.2298,324.8852,-0.0001190999999999,-2.185e-05,0.0,0 STARLINK-3562,1 51861U 22022K   22326.39660284 -.00002185  00000-0 -11910-3 0  9995,2 51861  53.2187  10.9061 0002387  35.2298 324.8852 15.08864781 41370,6917.805,95.436,541.321,538.018,0.0
51861.0,STARLINK-3562,PAYLOAD,2022-11-22 14:17:16,15.08845139,0.0002271,53.2176,10.0147,32.8448,327.2685,4.9741e-05,5.04e-06,0.0,0 STARLINK-3562,1 51861U 22022K   22326.59532902  .00000504  00000-0  49741-4 0  9997,2 51861  53.2176  10.0147 0002271  32.8448 327.2685 15.08845139 41474,6917.865,95.437,541.3009999999998,538.159,0.0
51861.0,STARLINK-3562,PAYLOAD,2022-11-23 12:32:41,15.08828776,0.0002437,53.2177,5.8509,36.2966,323.8191,1.1538e-06,-2.7000000000000004e-06,0.0,0 STARLINK-3562,1 51861U 22022K   22327.52270435 -.00000270  00000-0  11538-5 0  9996,2 51861  53.2177   5.8509 0002437  36.2966 323.8191 15.08828776 41614,6917.915,95.438,541.466,538.094,0.0
51861.0,STARLINK-3562,PAYLOAD,2022-11-23 14:08:04,15.08831182,0.000249,53.2176,5.5545,34.125,325.9901,6.8908e-06,-1.79e-06,0.0,0 STARLINK-3562,1 51861U 22022K   22327.58894293 -.00000179  00000-0  68908-5 0  9997,2 51861  53.2176   5.5545 0002490  34.1250 325.9901 15.08831182 41552,6917.906999999997,95.438,541.495,538.05,0.0
51861.0,STARLINK-3562,PAYLOAD,2022-11-24 09:12:41,15.08842791,0.0002515,53.2179,1.986,34.1667,325.9487,-1.8287e-05,-5.8e-06,0.0,0 STARLINK-3562,1 51861U 22022K   22328.38381711 -.00000580  00000-0 -18287-4 0  9993,2 51861  53.2179   1.9860 0002515  34.1667 325.9487 15.08842791 41675,6917.871999999999,95.437,541.477,537.997,0.0
51861.0,STARLINK-3562,PAYLOAD,2022-11-24 12:23:28,15.08840364,0.0002554,53.2182,1.3926,30.8269,329.2873,-2.1146e-05,-6.25e-06,0.0,0 STARLINK-3562,1 51861U 22022K   22328.51629884 -.00000625  00000-0 -21146-4 0  9992,2 51861  53.2182   1.3926 0002554  30.8269 329.2873 15.08840364 41760,6917.879,95.438,541.511,537.977,0.0
51861.0,STARLINK-3562,PAYLOAD,2022-11-25 09:03:29,15.08837258,0.0002372,53.2179,357.5252,33.5865,326.5277,8.2561e-05,1.026e-05,0.0,0 STARLINK-3562,1 51861U 22022K   22329.37741920  .00001026  00000-0  82561-4 0  9995,2 51861  53.2179 357.5252 0002372  33.5865 326.5277 15.08837258 41827,6917.889,95.438,541.395,538.113,0.0
51861.0,STARLINK-3562,PAYLOAD,2022-11-25 18:35:47,15.08843564,0.0002366,53.218,355.7408,33.9784,326.1359,0.00012306,1.671e-05,0.0,0 STARLINK-3562,1 51861U 22022K   22329.77485426  .00001671  00000-0  12306-3 0  9990,2 51861  53.2180 355.7408 0002366  33.9784 326.1359 15.08843564 41957,6917.869000000002,95.437,541.371,538.0980000000002,0.0
51861.0,STARLINK-3562,PAYLOAD,2022-11-26 10:29:38,15.08848065,0.0002448,53.2193,352.7687,41.0447,319.0729,4.7407e-05,4.66e-06,0.0,0 STARLINK-3562,1 51861U 22022K   22330.43725371  .00000466  00000-0  47407-4 0  9993,2 51861  53.2193 352.7687 0002448  41.0447 319.0729 15.08848065 41980,6917.856,95.437,541.414,538.0269999999998,0.0
51861.0,STARLINK-3562,PAYLOAD,2022-11-26 18:26:34,15.08847315,0.0002684,53.2192,351.2815,38.4321,321.6862,0.00016234,2.297e-05,0.0,0 STARLINK-3562,1 51861U 22022K   22330.76844958  .00002297  00000-0  16234-3 0  9999,2 51861  53.2192 351.2815 0002684  38.4321 321.6862 15.08847315 42030,6917.858,95.437,541.58,537.866,0.0
51861.0,STARLINK-3562,PAYLOAD,2022-11-27 10:20:26,15.08831155,0.0002526,53.2191,348.3077,36.7837,323.3328,-7.0927e-05,-1.417e-05,0.0,0 STARLINK-3562,1 51861U 22022K   22331.43086588 -.00001417  00000-0 -70927-4 0  9996,2 51861  53.2191 348.3077 0002526  36.7837 323.3328 15.08831155 42204,6917.906999999997,95.438,541.52,538.025,0.0
51861.0,STARLINK-3562,PAYLOAD,2022-11-27 18:17:21,15.08839907,0.0002399,53.2177,346.8205,31.7013,328.4123,-4.277e-05,-9.69e-06,0.0,0 STARLINK-3562,1 51861U 22022K   22331.76205892 -.00000969  00000-0 -42770-4 0  9999,2 51861  53.2177 346.8205 0002399  31.7013 328.4123 15.08839907 42250,6917.880999999999,95.438,541.405,538.086,0.0
51861.0,STARLINK-3562,PAYLOAD,2022-11-28 10:11:12,15.08856177,0.0002132,53.2196,343.8457,42.8507,317.2651,-0.00023547,-4.036e-05,0.0,0 STARLINK-3562,1 51861U 22022K   22332.42445373 -.00004036  00000-0 -23547-3 0  9992,2 51861  53.2196 343.8457 0002132  42.8507 317.2651 15.08856177 42354,6917.831,95.437,541.1709999999998,538.221,0.0
51861.0,STARLINK-3562,PAYLOAD,2022-11-28 18:08:09,15.08839708,0.0002576,53.2192,342.3605,37.6158,322.5014,-5.3106e-05,-1.134e-05,0.0,0 STARLINK-3562,1 51861U 22022K   22332.75566019 -.00001134  00000-0 -53106-4 0  9990,2 51861  53.2192 342.3605 0002576  37.6158 322.5014 15.08839708 42404,6917.880999999999,95.438,541.528,537.964,0.0
51861.0,STARLINK-3562,PAYLOAD,2022-11-29 10:01:59,15.08843986,0.0002673,53.2187,339.3855,31.5829,328.5324,0.00014209,1.974e-05,0.0,0 STARLINK-3562,1 51861U 22022K   22333.41805131  .00001974  00000-0  14209-3 0  9995,2 51861  53.2187 339.3855 0002673  31.5829 328.5324 15.08843986 42433,6917.868,95.437,541.582,537.884,0.0
51861.0,STARLINK-3562,PAYLOAD,2022-11-29 17:58:55,15.08836496,0.0002663,53.2175,337.8995,32.4247,327.6908,6.5868e-05,7.6e-06,0.0,0 STARLINK-3562,1 51861U 22022K   22333.74925836  .00000760  00000-0  65868-4 0  9996,2 51861  53.2175 337.8995 0002663  32.4247 327.6908 15.08836496 42482,6917.891,95.438,541.5980000000002,537.914,0.0
51861.0,STARLINK-3562,PAYLOAD,2022-11-30 00:20:28,15.08835612,0.0002556,53.2181,336.7091,34.978,325.1379,1.8699e-05,9e-08,0.0,0 STARLINK-3562,1 51861U 22022K   22334.01422150  .00000009  00000-0  18699-4 0  9994,2 51861  53.2181 336.7091 0002556  34.9780 325.1379 15.08835612 42590,6917.894,95.438,541.5269999999998,537.991,0.0
51861.0,STARLINK-3562,PAYLOAD,2022-11-30 09:52:48,15.08827628,0.0002741,53.2172,334.9255,30.2807,329.8343,-5.0759e-05,-1.096e-05,0.0,0 STARLINK-3562,1 51861U 22022K   22334.41167062 -.00001096  00000-0 -50759-4 0  9998,2 51861  53.2172 334.9255 0002741  30.2807 329.8343 15.08827628 42586,6917.918000000002,95.438,541.679,537.887,0.0
51861.0,STARLINK-3562,PAYLOAD,2022-12-01 03:22:02,15.0884074,0.0002385,53.2185,331.6534,37.2385,322.8773,2.8758e-05,1.69e-06,0.0,0 STARLINK-3562,1 51861U 22022K   22335.14030191  .00000169  00000-0  28758-4 0  9993,2 51861  53.2185 331.6534 0002385  37.2385 322.8773 15.08840740 42766,6917.878000000002,95.438,541.393,538.0930000000002,0.0
51861.0,STARLINK-3562,PAYLOAD,2022-12-01 09:43:34,15.08846723,0.0002651,53.2175,330.465,33.3853,326.7306,6.6791e-05,7.75e-06,0.0,0 STARLINK-3562,1 51861U 22022K   22335.40525694  .00000775  00000-0  66791-4 0  9991,2 51861  53.2175 330.4650 0002651  33.3853 326.7306 15.08846723 42733,6917.86,95.437,541.559,537.891,0.0
51861.0,STARLINK-3562,PAYLOAD,2022-12-02 11:09:46,15.08824942,0.0002644,53.2179,325.7065,34.274,325.8423,3.8843e-05,3.3e-06,0.0,0 STARLINK-3562,1 51861U 22022K   22336.46511753  .00000330  00000-0  38843-4 0  9993,2 51861  53.2179 325.7065 0002644  34.2740 325.8423 15.08824942 42965,6917.926,95.439,541.621,537.962,0.0
51861.0,STARLINK-3562,PAYLOAD,2022-12-02 15:55:55,15.08825888,0.0002666,53.218,324.8143,34.8853,325.2313,2.7215e-05,1.45e-06,0.0,0 STARLINK-3562,1 51861U 22022K   22336.66383912  .00000145  00000-0  27215-4 0  9994,2 51861  53.2180 324.8143 0002666  34.8853 325.2313 15.08825888 42927,6917.924,95.438,541.633,537.944,0.0
51861.0,STARLINK-3562,PAYLOAD,2022-12-02 23:52:50,15.0884422,0.0002626,53.2172,323.3279,33.5609,326.5549,3.8765e-05,3.29e-06,0.0,0 STARLINK-3562,1 51861U 22022K   22336.99502772  .00000329  00000-0  38765-4 0  9993,2 51861  53.2172 323.3279 0002626  33.5609 326.5549 15.08844220 43043,6917.8669999999975,95.437,541.549,537.9159999999998,0.0
51861.0,STARLINK-3562,PAYLOAD,2022-12-03 09:25:09,15.08844933,0.000247,53.218,321.5459,35.5228,324.5928,4.5281e-05,4.32e-06,0.0,0 STARLINK-3562,1 51861U 22022K   22337.39246573  .00000432  00000-0  45281-4 0  9998,2 51861  53.2180 321.5459 0002470  35.5228 324.5928 15.08844933 43037,6917.865,95.437,541.439,538.0219999999998,0.0
51861.0,STARLINK-3562,PAYLOAD,2022-12-03 15:46:42,15.08836909,0.0002508,53.2179,320.3556,34.3559,325.7595,-3.6312e-05,-8.66e-06,0.0,0 STARLINK-3562,1 51861U 22022K   22337.65743388 -.00000866  00000-0 -36312-4 0  9991,2 51861  53.2179 320.3556 0002508  34.3559 325.7595 15.08836909 43145,6917.89,95.438,541.49,538.02,0.0
